region,name,url,website,address,city,state,zip_code,phone,latitude,longitude,geocoding_status,id
southeast,5 O’Clock Club,https://wisconsinsupperclubs.com/supper-club/5-oclock-club-2/,https://the5oclockclubpewaukee.com,N28 W26658 Peterson Drive,Pewaukee,WI,53072,262-691-9960,43.0726325,-88.2778795,success,0
southeast,Alpine Retreat,https://wisconsinsupperclubs.com/supper-club/alpine-retreat/,https://www.alpineretreat.net/,1380 Friess Lake Road,"Hubertus,",WI,53033,262-628-3995,43.2389669,-88.2877987,success,1
southeast,Bass Bay Brewhouse,https://wisconsinsupperclubs.com/supper-club/bass-bay-brewhouse/,https://www.bassbaybrewhouse.com,S79 W15851 Aud Mar Drive,"Muskego,",WI,53150,414-377-9449,42.8998736,-88.11251,success,2
southeast,Bayside Supper Club,https://wisconsinsupperclubs.com/supper-club/bayside-supper-club/,https://www.restaurantji.com/wi/beaver-dam/bayside-supper-club-/,W9231 County Road G,"Beaver Dam,",WI,53916,920-887-0505,43.4432893,-88.8609065,success,3
southeast,Blue Heron Supper Club,https://wisconsinsupperclubs.com/supper-club/blue-heron-supper-club/,https://www.facebook.com/theblueheronsupperclub/,W229 S8300 Hwy 164,"Big Bend,",WI,53103,262-662-9985,42.8839956,-88.2088031,success,4
southeast,Brittain House Supper Club,https://wisconsinsupperclubs.com/supper-club/brittain-house-supper-club/,https://www.facebook.com/Brittain-House-Supper-Club-1701362813414555/,735 South Watertown Street,"Waupun,",WI,53963,920-345-1800,43.6224959,-88.7243357,success,5
southeast,Butler Inn of Pewaukee,https://wisconsinsupperclubs.com/supper-club/butler-inn-of-pewaukee/,http://butlerinnofpewaukee.com,742 Glacier Road,"Pewaukee,",WI,53072,262-691-0840,43.087706,-88.2774033,success,6
southeast,Cantafio’s Buckhorn Steakhouse,https://wisconsinsupperclubs.com/supper-club/cantafios-buckhorn-steakhouse/,https://www.cantafiosbuckhornsteakhouse.com,N8802 County Road A,"Beaver Dam,",WI,53916,920-885-0505,43.5139937,-88.8103179,success,7
southeast,Clifford’s Supper Club,https://wisconsinsupperclubs.com/supper-club/cliffords-supper-club/,http://www.cliffordsfinefood.com,10418 West Forest Home Avenue,"Hales Corners,",WI,53130,414-425-6226,42.9395025,-88.0440843,success,8
southeast,Colony House **,https://wisconsinsupperclubs.com/supper-club/colony-house/,https://www.facebook.com/Colony-House-Restaurant-116258141736504/,25811 119th Street,"Trevor,",WI,53179,262-862-2076,42.5062829,-88.1208666,success,9
southeast,"Copper Dock, The *†",https://wisconsinsupperclubs.com/supper-club/the-copper-dock-%e2%80%a0/,http://www.thecopperdock.com/,1474 East Friess Lake Drive,"Hubertus,",WI,53033,262-628-3718,43.2407209,-88.2709137,success,10
southeast,Corner House Supper Club,https://wisconsinsupperclubs.com/supper-club/corner-house-supper-club/,https://www.chsupperclub.com,207 Gas Light Circle,"Racine,",WI,53403,262-637-1295,42.731913,-87.7800798,success,11
southeast,Diamond Jim’s Steakhouse *†,https://wisconsinsupperclubs.com/supper-club/diamond-jims-steakhouse-%e2%80%a0/,http://diamondjimssteakhouse.com,11811 West Janesville Road,"Hales Corners,",WI,53130,414-425-7777,42.9364464,-88.06108150000001,success,12
southeast,"Duck Inn, The *†",https://wisconsinsupperclubs.com/supper-club/the-duck-inn-%e2%80%a0/,http://www.duckinndelavan.com/,N6214 Hwy 89,"Delavan,",WI,53115,608-883-6988,42.7161862,-88.7403021,success,13
southeast,Edgewater Supper Club **,https://wisconsinsupperclubs.com/supper-club/edgewater-supper-club/,http://theedgewatersupperclub.com/,N3522 County Road K,"Jefferson,",WI,53549,920-674-9942,42.9701548,-88.8088763,success,14
southeast,Feil’s Supper Club,https://wisconsinsupperclubs.com/supper-club/feils-supper-club/,https://www.feilssupperclub.com,N8743 Hwy 73,"Randolph,",WI,53956,920-326-5544,43.51100659999999,-89.0007773,success,15
southeast,Fitzgerald’s Genoa Junction **,https://wisconsinsupperclubs.com/supper-club/fitzgeralds-genoa-junction/,http://fitzgeraldsfishboil.com/,727 Main Street (Hwy B),"Genoa City,",WI,53128,262-279-5200,42.49706279999999,-88.33085810000001,success,16
southeast,Five O’Clock Steakhouse **,https://wisconsinsupperclubs.com/supper-club/five-oclock-steakhouse/,https://www.facebook.com/FiveOClockSteak/,2416 West State Street,"Milwaukee,",WI,53233,414-342-3553,43.0434029,-87.9434211,success,17
southeast,Great Outdoors Supper Club †,https://wisconsinsupperclubs.com/supper-club/great-outdoors-supper-club-%e2%80%a0/,https://www.greatoutdoorssupperclub.com/,8906 Forest View Road,"Kewaskum,",WI,53040,262-334-7977,43.5134917,-88.1604741,success,18
southeast,HobNob *†,https://wisconsinsupperclubs.com/supper-club/hobnob-%e2%80%a0/,https://thehobnob.com/,277 Sheridan Rd,"Racine,",WI,53403,262-552-8008,42.663143,-87.8089901,success,19
southeast,House of Gerhard,https://wisconsinsupperclubs.com/supper-club/house-of-gerhard/,http://www.houseofgerhard.com,3927 75th St,"Kenosha,",WI,53142,262-694-5212,42.5660529,-87.8561818,success,20
southeast,Iron Ridge Inn,https://wisconsinsupperclubs.com/supper-club/iron-ridge-inn/,http://www.ironridgeinn.com,131 South Main Street,"Iron Ridge,",WI,53035,920-387-3348,43.3980863,-88.5319169,success,21
southeast,Jack Pandl’s Whitefish Bay Inn,https://wisconsinsupperclubs.com/supper-club/jack-pandls-whitefish-bay-inn/,https://www.jackpandls.com,1319 East Henry Clay Street,"Whitefish Bay,",WI,53217,414-964-3800,43.1109808,-87.8938683,success,22
southeast,"Jackson Grill, The",https://wisconsinsupperclubs.com/supper-club/the-jackson-grill/,https://www.facebook.com/people/The-Jackson-Grill/100092849504892/?mibextid=ZbWKwL,3736 West Mitchell Street,"Milwaukee,",WI,53215,414-212-8626,43.0125473,-87.96144559999999,success,23
southeast,"Jail House, The",https://wisconsinsupperclubs.com/supper-club/the-jail-house/,https://www.jailhousewi.com,897 Pleasant Valley Road,"West Bend,",WI,53095,262-675-9302,43.3514367,-88.08226730000001,success,24
southeast,Joey Gerard’s Supper Club,https://wisconsinsupperclubs.com/supper-club/joey-gerards-supper-club/,https://www.bartolottas.com/joey-gerards,5601 Broad Street,"Greendale,",WI,53129,414-858-1900,42.941821,-87.99657599999999,success,25
southeast,Johnny Manhattan’s,https://wisconsinsupperclubs.com/supper-club/johnny-manhattans/,http://www.johnnymanhattans.com,3718 Hubertus Road,"Hubertus,",WI,53033,262-628-7700,43.2366259,-88.222617,success,26
southeast,Juice’s Ghost Town,https://wisconsinsupperclubs.com/supper-club/juices-ghost-town/,https://juicesghostown.com,990 Ulao Road,"Grafton,",WI,53024,262-376-9003,43.3206284,-87.9156368,success,27
southeast,Kurt’s Steakhouse,https://wisconsinsupperclubs.com/supper-club/kurts-steakhouse/,https://www.kurtssteakhouse.com/,22 West Main Street,"Delafield,",WI,53018,262-646-3333,43.0590768,-88.4145254,success,28
southeast,Little Red Inn,https://wisconsinsupperclubs.com/supper-club/little-red-inn/,https://www.littleredinn.com,4900 WI 175,"Hartford,",WI,53027,262-644-8181,43.3698718,-88.3331628,success,29
southeast,Mars Resort,https://wisconsinsupperclubs.com/supper-club/mars-resort/,https://www.mars-resort.com,W4098 South Shore Drive,"Lake Geneva,",WI,53147,262-245-5689,42.591683,-88.5022607,success,30
southeast,Michael’s on the Lake,https://wisconsinsupperclubs.com/supper-club/michaels-on-the-lake/,https://michaelsonthelakewi.com,3101 Eagle Road,"Kansasville,",WI,53139,262-878-3313,42.6961092,-88.12449769999999,success,31
southeast,Milwaukee Steakhouse,https://wisconsinsupperclubs.com/supper-club/milwaukee-steakhouse/,http://themilwaukeesteakhouse.com,6024 West Bluemound Road,"Milwaukee,",WI,53213,414-312-7891,43.0366743,-87.9884091,success,32
southeast,Moonlight Tavern Supper Club,https://wisconsinsupperclubs.com/supper-club/moonlight-tavern-supper-club/,https://www.northshorechophouse.com,101 East Main Street,"Port Washington,",WI,53074,262-235-1981,43.3883133,-87.8706224,success,33
southeast,Nite Cap Inn,https://wisconsinsupperclubs.com/supper-club/nite-cap-inn/,https://www.restaurantji.com/wi/palmyra/nite-cap-inn-/,227 South 3rd Street,"Palmyra,",WI,53156,262-495-2659,42.875828,-88.5847697,success,34
southeast,North Shore Chophouse,https://wisconsinsupperclubs.com/supper-club/north-shore-chophouse/,https://www.northshorechophouse.com,1835 North Shore Road,"Fort Atkinson,",WI,53538,920-563-2083,42.9095965,-88.91980699999999,success,35
southeast,"Olde Cedar Inn, The",https://wisconsinsupperclubs.com/supper-club/the-olde-cedar-inn/,https://oldecedarinn.com,5802 State Hwy 144,West Bend,WI,53095,262-629-4400,43.4025884,-88.26359579999999,success,36
southeast,Pitch’s,https://wisconsinsupperclubs.com/supper-club/pitchs/,https://www.pitchsribs.com,1801 North Humboldt Avenue,"Milwaukee,",WI,53202,414-272-9313,43.0545417,-87.8983465,success,37
southeast,Plier’s Full Circle,https://wisconsinsupperclubs.com/supper-club/pliers-full-circle/,https://www.fullcirclerestaurant.com,3704 Highland Drive,"Port Washington,",WI,53074,262-261-5050,43.4136108,-87.87079489999999,success,38
southeast,Range Line Inn,https://wisconsinsupperclubs.com/supper-club/range-line-inn/,https://www.facebook.com/TheRangeLineInn/,2635 West Mequon Road,Mequon,WI,53092,262-242-0530,43.221391,-87.9437197,success,39
southeast,Red Circle Inn,https://wisconsinsupperclubs.com/supper-club/red-circle-inn/,https://www.redcircleinn.com,N44W33013 Watertown Plank Rd,Nashotah,WI,53058,262-367-4883,43.0990499,-88.4033082,success,40
southeast,Relish Supper Club,https://wisconsinsupperclubs.com/supper-club/relish-supper-club/,https://relishsupperclub.com,N116W15841 Main Street,Germantown,WI,53022,262-415-7043,43.2281103,-88.106184,success,41
southeast,Sandra’s on the Park,https://wisconsinsupperclubs.com/supper-club/sandras-on-the-park/,http://www.sandrasonthepark.com,10049 West Forest Home Avenue,"Hales Corners,",WI,53130,414-235-8889,42.94223969999999,-88.0388761,success,42
southeast,Schaumburg Dinner Club,https://wisconsinsupperclubs.com/supper-club/schaumburg-dinner-club/,https://www.facebook.com/pages/category/American-Restaurant/Schaumburg-Dinner-Club-115738521780173/,N11935 County Road A,"Randolph,",WI,53956,920-928-3348,43.62883919999999,-88.9627379,success,43
southeast,"Shores of Fox Lake, The",https://wisconsinsupperclubs.com/supper-club/the-shores-of-fox-lake/,http://www.theshoresoffoxlake.com/,N10604 Chief Kuno Trail,"Fox Lake,",WI,53933,920-928-2576,43.5784619,-88.9269059,success,44
southeast,Silver Lake Country Inn,https://wisconsinsupperclubs.com/supper-club/silver-lake-country-inn/,http://silverlakecountryinn.com,5602 Peters Drive,"West Bend,",WI,53095,262-338-7975,43.3925202,-88.2133817,success,45
southeast,Stagecoach Inn **,https://wisconsinsupperclubs.com/supper-club/stagecoach-inn/,https://facebook.com/dinneratstagecoach,11946 North State Road 26,"Fort Atkinson,",WI,53538,608-868-3850,42.9288944,-88.8370509,success,46
southeast,"Steakout, The †",https://wisconsinsupperclubs.com/supper-club/the-steakout-%e2%80%a0/,http://www.greendalesteakout.com,6300 Industrial Loop,"Greendale,",WI,53129,414-421-7200,42.9307708,-87.99492049999999,success,47
southeast,Timmer’s Resort,https://wisconsinsupperclubs.com/supper-club/timmers-resort/,https://timmersresort.com,5151 Timmer Bay Road,"West Bend,",WI,53095,262-338-7710,43.3765182,-88.25466689999999,success,48
southeast,Village Supper Club,https://wisconsinsupperclubs.com/supper-club/village-supper-club/,https://villagesupperclubdelavan.com,1725 South Shore Road,"Delavan,",WI,53115,262-456-3400,42.61419540000001,-88.5867624,success,49
southeast,Village Supper Club,https://wisconsinsupperclubs.com/supper-club/village-supper-club-2/,http://villagesupperclub.com/,10909 Sheridan Road,"Pleasant Prairie,",WI,53185,262-697-2847,42.5156489,-87.8228022,success,50
southeast,Voelker’s Steak House,https://wisconsinsupperclubs.com/supper-club/voelkers-steak-house/,http://places.singleplatform.com/voelkers-steak-house/menu,415 East South Street,"Beaver Dam,",WI,53916,920-885-9924,43.45090949999999,-88.8289787,success,51
southeast,"Wayside Inn, The",https://wisconsinsupperclubs.com/supper-club/wayside-inn/,https://www.facebook.com/jeffersonwi/,W4820 Hwy 18,Jefferson,WI,53549,920-674-6766,43.00715719999999,-88.7750504,success,52
southeast,Wilmot Stage Stop,https://wisconsinsupperclubs.com/supper-club/wilmot-stage-stop/,https://www.wilmotstagestop.com,30646 113th Street,"Wilmot,",WI,53192,262-862-6212,42.5129114,-88.18150399999999,success,53
southeast,"Wisco Supper Club, The",https://wisconsinsupperclubs.com/supper-club/the-wisco-supper-club/,https://www.thewiscosupperclub.com,W3295 County Road Y,Lomira,WI,53048,920-583-4351,43.57347439999999,-88.56088760000002,success,54
southwest,3 Mile House *†,https://wisconsinsupperclubs.com/supper-club/3-mile-house-%e2%80%a0/,https://3milehouse.com/,370 Wisconsin 35,"Hazel Green,",WI,53811,608-748-4455,42.5189139,-90.6056252,success,55
southwest,"615 Club, The **",https://wisconsinsupperclubs.com/supper-club/the-615-club/,http://the615club.com/,615 Broad Street,"Beloit,",WI,53511,608-364-4615,42.4989337,-89.03011690000001,success,56
southwest,Arthur’s Supper Club **,https://wisconsinsupperclubs.com/supper-club/arthurs-supper-club/,https://arthurssupperclub.com/,E4885 US Highway 14,"Spring Green,",WI,53588,608-588-2521,43.1892106,-90.0746235,success,57
southwest,Badger Crossing,https://wisconsinsupperclubs.com/supper-club/badger-crossing/,https://www.badgercrossing.com,909 Front Street,Cashton,WI,54619,608-654-5706,43.7440761,-90.7782807,success,58
southwest,Benedetti’s Club 51 *†,https://wisconsinsupperclubs.com/supper-club/benedettis-club-51-%e2%80%a0/,https://benedettisclub51.wordpress.com/menu/,3232 S Riverside Dr,"Beloit,",WI,53511,608-362-9917,42.5607888,-89.0381305,success,59
southwest,Buckhorn Supper Club *†,https://wisconsinsupperclubs.com/supper-club/buckhorn-supper-club-%e2%80%a0/,https://buckhornsupperclub.com,11802 N Charley Bluff Rd,"Milton,",WI,53563,608-868-2653,42.8422803,-88.97645879999999,success,60
southwest,"Butterfly Club, The *†",https://wisconsinsupperclubs.com/supper-club/the-butterfly-club-%e2%80%a0/,http://www.butterflyclub.us/,5246 E County Road X,"Beloit,",WI,53511,608-362-8577,42.540355,-88.93969899999999,success,61
southwest,Chop’s Kall Inn *†,https://wisconsinsupperclubs.com/supper-club/chops-kall-inn-%e2%80%a0/,https://www.chopskallinn.com,4089 Sandy Hook Rd.,"Hazel Green,",WI,53811,608-748-4393,42.5445938,-90.6227645,success,62
southwest,Cimaroli’s Supper Club *†,https://wisconsinsupperclubs.com/supper-club/cimarolis-supper-club-%e2%80%a0/,http://www.cimarolis.com/,W11793 WI-127,"Portage,",WI,53901,608-742-2238,43.6115739,-89.58740879999999,success,63
southwest,Club 60,https://wisconsinsupperclubs.com/supper-club/club-60/,http://www.club60supperclub.com,W2164 State Rd 60,"Columbus,",WI,53925,920-623-3113,43.3413437,-89.1071201,success,64
southwest,Club Oasis **,https://wisconsinsupperclubs.com/supper-club/club-oasis/,http://cluboasissparta.com/,11345 State Highway 21,"Sparta,",WI,54656,608-269-2644,43.967531,-90.7632725,success,65
southwest,"Cottonwood, The",https://wisconsinsupperclubs.com/supper-club/the-cottonwood/,http://cottonwoodsupperclub.com,4716 Green River Rd,"Fennimore,",WI,53809,608-822-631,42.999683,-90.656347,success,66
southwest,Country Heights Supper Club *†,https://wisconsinsupperclubs.com/supper-club/country-heights-supper-club-%e2%80%a0/,http://countryheightssupperclubandmotel.com/,1152 Badger Rd,"Hazel Green,",WI,53811,608-748-4687,42.5464342,-90.6094578,success,67
southwest,Crossroads Supper Club,https://wisconsinsupperclubs.com/supper-club/crossroads-supper-club/,https://www.crossroads80anda.com,9315 State Road 80,"Platteville,",WI,53818,608-348-7899,42.8439188,-90.4478314,success,68
southwest,"Del Bar, The **",https://wisconsinsupperclubs.com/supper-club/the-del-bar/,http://del-bar.com/,800 Wisconsin Dells Parkway,"Wisconsin Dells,",WI,53965,608-253-1861,43.5994024,-89.793145,success,69
southwest,Delaney’s **,https://wisconsinsupperclubs.com/supper-club/delaneys/,https://experiencedelaneys.com,449 Grand Canyon Drive,"Madison,",WI,53719,608-833-7337,43.0580291,-89.4954425,success,70
southwest,Digger’s Sting,https://wisconsinsupperclubs.com/supper-club/diggers-sting/,https://diggerssting.com,122 3rd Street N,"La Crosse,",WI,54601,608-782-3796,43.8134008,-91.2518099,success,71
southwest,Dorf Haus Supper Club *†,https://wisconsinsupperclubs.com/supper-club/dorf-haus-supper-club-%e2%80%a0/,http://www.foodspot.com/Clients/WI/SaukCity/DorfHausSupperClub/default.aspx?accid=19510,8931 County Hwy Y,"Sauk City,",WI,53583,608-643-3980,43.2492019,-89.67669889999999,success,72
southwest,Driftless Social,https://wisconsinsupperclubs.com/supper-club/driftless-social/,https://www.driftlesssocial.com,128 East Main Street,Mt. Horeb,WI,53572,608-437-8464,43.0089061,-89.7389127,success,73
southwest,Drugan’s Castle Mound,https://wisconsinsupperclubs.com/supper-club/drugans-castle-mound/,https://drugans.com,W7665 Sylvester Road,"Holmen,",WI,54636,608-526-4144,44.0306127,-91.280678,success,74
southwest,Fish Tales,https://wisconsinsupperclubs.com/supper-club/fish-tales/,https://www.fishtalesrestaurant.com,W12690 Hwy 188,"Lodi,",WI,53555,608-592-4266,43.3508212,-89.62997589999999,success,75
southwest,Fitz’s on the Lake,https://wisconsinsupperclubs.com/supper-club/fitzs-on-the-lake/,https://fitzsonthelake.com,W11602 County Road V,"Lodi,",WI,53555,608-592-3302,43.3591027,-89.577745,success,76
southwest,Fredrick’s Supper Club †,https://wisconsinsupperclubs.com/supper-club/fredricks-supper-club-%e2%80%a0/,https://www.facebook.com/FredricksSupperClub/,118 Merchant Row,"Milton,",WI,53563,608-868-2966,42.7818601,-88.96283609999999,success,77
southwest,Freighthouse Restaurant,https://wisconsinsupperclubs.com/supper-club/freighthouse-restaurant/,https://www.freighthouserestaurant.com,107 Vine Street,"La Crosse,",WI,54601,608-784-6211,43.8158498,-91.25313059999999,success,78
southwest,Green Acres Supper Club **,https://wisconsinsupperclubs.com/supper-club/green-acres-supper-club/,http://greenacresrestaurant.com/,7438 State Road 78,"Sauk City,",WI,53583,608-643-2305,43.2708225,-89.722067,success,79
southwest,Green Lantern Restaurant,https://wisconsinsupperclubs.com/supper-club/green-lantern-restaurant/,https://thegreenlanternrestaurant.com,4412 Siggelkow Road,"McFarland,",WI,53558,608-838-4730,43.0257421,-89.3062782,success,80
southwest,Hi Point Steakhouse †,https://wisconsinsupperclubs.com/supper-club/hi-point-steakhouse-%e2%80%a0/,https://www.hipointsteakhouse.com/,6900 County Road HHH,"Ridgeway,",WI,53582,608-924-2819,43.0054808,-89.9742899,success,81
southwest,Hideaway Acres,https://wisconsinsupperclubs.com/supper-club/hideaway-acres/,https://www.facebook.com/pages/Hideaway-Acres-Supper-Club/117294844956227,4825 Bennett Road,"Benton,",WI,53803,608-759-4410,42.564509,-90.351773,success,82
southwest,"Hilltop, The †",https://wisconsinsupperclubs.com/supper-club/the-hilltop-%e2%80%a0/,http://thehilltopcp.com,4173 Hwy P,"Cross Plains,",WI,53528,608-798-2893,43.1182722,-89.6520973,success,83
southwest,House of Embers,https://wisconsinsupperclubs.com/supper-club/house-of-embers/,https://www.houseofembers.com,935 Wisconsin Dells Parkway,"Wisconsin Dells,",WI,53965,608-253-6411,43.6008271,-89.79429979999999,success,84
southwest,Ishnala *†,https://wisconsinsupperclubs.com/supper-club/ishnala-%e2%80%a0/,http://www.ishnala.com,S2011 Ishnala Road,"Lake Delton,",WI,53940,608-253-1771,43.5754569,-89.80945460000001,success,85
southwest,Jones’ Black Angus *†,https://wisconsinsupperclubs.com/supper-club/jones-black-angus-%e2%80%a0/,http://jonesblackangus.com,37640 Hwy 18,"Prairie du Chien,",WI,53821,608-326-2222,43.023562,-91.11976790000001,success,86
southwest,Kickapoo Creekside,https://wisconsinsupperclubs.com/supper-club/kickapoo-creekside/,https://kickapoocreekside.com,817 West Kickapoo Street,"Readstown,",WI,54652,608-629-5565,43.4446369,-90.76839679999999,success,87
southwest,Lake House Inn,https://wisconsinsupperclubs.com/supper-club/lake-house-inn/,https://www.lakehouseinnedgerton.com/,1612 East Hotel Drive,"Edgerton,",WI,53534,608-235-2771,42.8422533,-89.00459590000001,success,88
southwest,Louisburg Junction Supper Club,https://wisconsinsupperclubs.com/supper-club/louisburg-junction-supper-club/,https://www.louisburgjunction.com,2061 Louisburg Road,"Cuba City,",WI,53807,608-774-3663,42.5782744,-90.556525,success,89
southwest,Maple Tree Supper Club,https://wisconsinsupperclubs.com/supper-club/maple-tree-supper-club/,https://mapletreesupperclub.com/,6010 US Hwy 51,"McFarland,",WI,53558,608-838-5888,43.0125071,-89.3038772,success,90
southwest,Mariner’s,https://wisconsinsupperclubs.com/supper-club/mariners/,https://marinersmadison.com,5339 Lighthouse Bay Drive,"Madison,",WI,53704,608-246-3120,43.1489218,-89.4070057,success,91
southwest,Old Towne Inn **,https://wisconsinsupperclubs.com/supper-club/old-towne-inn/,https://www.oldtowneinnwestby.com/,100 East Old Town Road,"Westby,",WI,54667,608-634-3991,43.6395483,-90.86571359999999,success,92
southwest,Owl’s Nest,https://wisconsinsupperclubs.com/supper-club/owls-nest/,https://owlsnestwi.com,617 East North Street,"Poynette,",WI,53955,608-635-2299,43.3957313,-89.39452949999999,success,93
southwest,Red’s Supper Club,https://wisconsinsupperclubs.com/supper-club/reds-supper-club/,https://www.facebook.com/Reds-Supper-Club-148288721881937,27569 Hwy 81,"Cuba City,",WI,53807,608-762-5406,42.6673912,-90.3581769,success,94
southwest,Rex’s Innkeeper,https://wisconsinsupperclubs.com/supper-club/rexs-innkeeper/,https://rexsinnkeeper.com,301 North Century Avenue,"Waunakee,",WI,53597,608-849-5011,43.1943726,-89.46243319999999,success,95
southwest,"Ridge, The",https://wisconsinsupperclubs.com/supper-club/the-ridge/,https://www.facebook.com/theridgerestaurant3/,W2782 Hwy 33,"La Crosse,",WI,54601,608-788-3969,43.7855386,-91.0446012,success,96
southwest,Rocky’s Supper Club *†,https://wisconsinsupperclubs.com/supper-club/rockys-supper-club-%e2%80%a0/,https://www.facebook.com/RockysSupperClub/,101 South Main Street,"Stoddard,",WI,54658,608-457-2111,43.6619009,-91.2187038,success,97
southwest,Suzy’s Steak & Seafood,https://wisconsinsupperclubs.com/supper-club/suzys-steak-seafood/,https://suzysportage.com,2701 County Road CX,"Portage,",WI,53901,608-742-8400,43.5701043,-89.47689609999999,success,98
southwest,Toby’s Supper Club,https://wisconsinsupperclubs.com/supper-club/tobys-supper-club/,http://www.tobyssupperclub.com/Home.html,3717 South Dutch Mill Road,"Madison,",WI,53718,608-222-6913,43.0440111,-89.3027872,success,99
southwest,Tornado Club Steak House *†,https://wisconsinsupperclubs.com/supper-club/tornado-club-steak-house-%e2%80%a0/,http://www.tornadosteakhouse.com/,116 South Hamilton Street,"Madison,",WI,53703,608-256-3570,43.072486,-89.3845981,success,100
southwest,Turn Key Supper Club,https://wisconsinsupperclubs.com/supper-club/turn-key-supper-club/,https://www.turnkeymadison.com,1344 East Washington Avenue,Madison,WI,53703,608-416-1109,43.0886583,-89.3647606,success,101
southwest,"Village Bar Supper Club, The **",https://wisconsinsupperclubs.com/supper-club/the-village-bar-supper-club/,http://villagebar.webstarts.com/,3410 County Road HHH,"Kieler,",WI,53812,608-568-3004,42.5877737,-90.5936485,success,102
southwest,Village Inn,https://wisconsinsupperclubs.com/supper-club/village-inn/,https://www.facebook.com/p/Village-Inn-Pub-Eatery-100057630871993/,1601 Bangor Street,Bangor,WI,54614,608-486-2741,43.8913147,-90.9893136,success,103
southwest,Westview Inn,https://wisconsinsupperclubs.com/supper-club/westview-inn/,https://www.facebook.com/pages/category/American-Restaurant/Westview-Inn-145895945450229/,174 Leonard Street S,"West Salem,",WI,54669,608-786-1336,43.8953054,-91.08170249999999,success,104
southwest,Woodbine Inn,https://wisconsinsupperclubs.com/supper-club/woodbine-inn/,https://www.facebook.com/pages/category/American-Restaurant/Woodbine-Inn-247749015265585/,N11091 19th Avenue,"Necedah,",WI,54646,608-565-2122,44.0456826,-90.0218993,success,105
southwest,Zeman’s Old Highway House,https://wisconsinsupperclubs.com/supper-club/zemans-old-highway-house/,https://zemans-hh.com,620 West Pine Street,"Baraboo,",WI,53913,608-448-6950,43.47604399999999,-89.7683931,success,106
northeast,Alexander’s,https://wisconsinsupperclubs.com/supper-club/alexanders/,https://alexandersofdoorcounty.com,3667 WI-42,"Fish Creek,",WI,54212,920-868-3532,45.1338033,-87.2106972,success,107
northeast,Altona Supper Club,https://wisconsinsupperclubs.com/supper-club/altona-supper-club/,http://www.altonasupperclub.com,2306 Calumet Drive,"New Holstein,",WI,53061,920-898-5255,43.9569936,-88.107692,success,108
northeast,Anderson’s Supper Club,https://wisconsinsupperclubs.com/supper-club/andersons-supper-club/,https://www.facebook.com/AndersonsSupperClub/,15695 State Hwy 32,"Lakewood,",WI,53138,715-850-2717,45.3012082,-88.54243040000001,success,109
northeast,"Ballering, The",https://wisconsinsupperclubs.com/supper-club/the-ballering/,https://www.facebook.com/TheBallering/,Milwaukee Street,"Kewaunee,",WI,54216,920-388-6011,44.4521838,-87.5030607,success,110
northeast,Bavarian Inn,https://wisconsinsupperclubs.com/supper-club/bavarian-inn/,https://www.menupix.com/wisconsin/restaurants/4900722/Bavarian-Inn-Supper-Club-Lena-WI,104 East Main Street,"Lena,",WI,53139,920-829-5168,44.9512444,-88.0466624,success,111
northeast,Billy’s on Main,https://wisconsinsupperclubs.com/supper-club/billys-on-main/,https://www.facebook.com/billysonmain,741 Main Street,"Luxemburg,",WI,54217,920-845-2505,44.5386226,-87.7039312,success,112
northeast,Black Otter Supper Club,https://wisconsinsupperclubs.com/supper-club/black-otter-supper-club/,https://www.theblackottersupperclub.com,503 South Nash Street,"Hortonville,",WI,54944,920-779-6975,44.3304274,-88.6398257,success,113
northeast,Blanck’s Supper Club †,https://wisconsinsupperclubs.com/supper-club/blancks-supper-club-%e2%80%a0/,http://www.blanckssupperclub.com,W2655 County Road Q,"Malone,",WI,54049,920-795-4484,43.8776932,-88.2900222,success,114
northeast,Boarding House **,https://wisconsinsupperclubs.com/supper-club/boarding-house/,http://theboardinghousesupperclub.com/,632 Main Street,"Suring,",WI,54174,920-842-2490,44.9992121,-88.3716913,success,115
northeast,Bob & Laura’s Supper Club,https://wisconsinsupperclubs.com/supper-club/bob-lauras-supper-club/,https://www.facebook.com/bobandlauras/,N4175 Alpine Lane,"Pound,",WI,54161,920-897-4004,45.1116822,-88.02346779999999,success,116
northeast,Brown’s Corner,https://wisconsinsupperclubs.com/supper-club/browns-corner/,https://www.brownscorner.net,800 French Street,"Peshtigo,",WI,54157,715-801-0045,45.0544424,-87.7636294,success,117
northeast,Butte Des Morts Supper Club,https://wisconsinsupperclubs.com/supper-club/butte-des-morts-supper-club/,http://www.buttedesmortssupperclub.com,5756 Main Street,"Butte Des Morts,",WI,54927,920-582-0665,44.0997896,-88.6533718,success,118
northeast,Cattails Supper Club,https://wisconsinsupperclubs.com/supper-club/cattails-supper-club/,https://www.facebook.com/people/Cattails-Supper-Club/61553397403460/,6661 Brecklins Loop Road,Larsen,WI,54947,920-836-0279,44.2044844,-88.7324304,success,119
northeast,Cedar Lodge,https://wisconsinsupperclubs.com/supper-club/cedar-lodge/,http://www.thecedarlodge.com/,N10872 Hwy 151,"Calumetville,",WI,53049,920-795-4574,43.9361013,-88.303438,success,120
northeast,Century Elm Supper Club,https://wisconsinsupperclubs.com/supper-club/century-elm-supper-club/,https://www.centuryelm.com,8300 County Road T,"Larsen,",WI,54927,920-836-2022,44.1918188,-88.60439799999999,success,121
northeast,Chissy’s Pub & Grill,https://wisconsinsupperclubs.com/supper-club/chissys-pub-grill/,http://chissys.com,215 Hwy 28,"Waldo,",WI,54927,920-528-8656,43.6818159,-87.93865699999999,success,122
northeast,Club Chalet **,https://wisconsinsupperclubs.com/supper-club/club-chalet/,http://clubchalet.net/,4642 Nicolet Drive,"Green Bay,",WI,54311,920-866-2341,44.6106249,-87.84342559999999,success,123
northeast,Colonial House Supper Club,https://wisconsinsupperclubs.com/supper-club/colonial-house-supper-club/,http://www.colonialhousesupperclub.com,N4330 County Road E,"Kaukauna,",WI,54130,920-788-2622,44.3942382,-88.2773665,success,124
northeast,Dan and Tim’s Riverside,https://wisconsinsupperclubs.com/supper-club/dan-and-tims-riverside/,https://www.facebook.com/Riverside.Dan.Tim/,1010 Main Avenue,"Crivitz,",WI,54114,715-854-3281,45.2325864,-88.01260130000001,success,125
northeast,Dick and Joan’s Supper Club,https://wisconsinsupperclubs.com/supper-club/dick-and-joans-supper-club/,https://www.facebook.com/dickandjoans/,220 North Lynndale Drive,"Appleton,",WI,54914,920-731-8855,44.2651942,-88.4453676,success,126
northeast,Donny’s Glidden Lodge †,https://wisconsinsupperclubs.com/supper-club/donnys-glidden-lodge-%e2%80%a0/,https://donnysgliddenlodge.com,4670 Glidden Road,"Sturgeon Bay,",WI,54235,920-746-9460,44.8967492,-87.2158753,success,127
northeast,Embers 1871,https://wisconsinsupperclubs.com/supper-club/embers-1871/,http://www.embers1871.com,W3529 County Road B,"Peshtigo,",WI,54157,715-801-0023,45.056103,-87.770215,success,128
northeast,"English Inn, The",https://wisconsinsupperclubs.com/supper-club/the-english-inn/,https://theenglishinn.com,3713 Hwy 42,"Fish Creek,",WI,54212,920-868-3076,45.1326283,-87.21281239999999,success,129
northeast,Five Pillars Supper Club,https://wisconsinsupperclubs.com/supper-club/five-pillars-supper-club/,http://www.fivepillarssupperclub.com,W2290 Hwy K,"Random Lake,",WI,53075,920-994-4336,43.55222,-87.9617585,success,130
northeast,Geno’s Steakhouse †,https://wisconsinsupperclubs.com/supper-club/genos-steakhouse-%e2%80%a0/,http://www.genossteakhouse47.com,N8755 Old Hwy 47,"Black Creek,",WI,54106,920-439-1265,44.5550203,-88.43528309999999,success,131
northeast,George’s Steakhouse,https://wisconsinsupperclubs.com/supper-club/georges-steakhouse/,http://www.georgessteakhouseappleton.com,2208 South Memorial Drive,"Appleton,",WI,54915,920-733-4939,44.2411748,-88.4194991,success,132
northeast,Gib’s on the Lake **,https://wisconsinsupperclubs.com/supper-club/gibs-on-the-lake/,http://gibsonthelake.com/,N110 Hwy 42,"Kewaunee,",WI,54216,920-776-1551,44.32788480000001,-87.54422439999999,success,133
northeast,Gobbler’s Knob,https://wisconsinsupperclubs.com/supper-club/gobblers-knob/,https://gobblersknob.net,101 North Military Road,"Stockbridge,",WI,53088,920-439-1265,44.0720413,-88.2993797,success,134
northeast,"Granary Supper Club, The",https://wisconsinsupperclubs.com/supper-club/1376/,https://www.facebook.com/thegranarysupperclub/,N586 Military Road,"Sherwood,",WI,54169,920-989-1233,44.1805309,-88.253355,success,135
northeast,Haase’s Supper Club,https://wisconsinsupperclubs.com/supper-club/haases-supper-club/,https://www.facebook.com/HaasesSupperClub/,9497 County Hwy D,"Winneconne,",WI,54986,920-685-2721,44.0978584,-88.8749465,success,136
northeast,Harbor Fish Market & Grille,https://wisconsinsupperclubs.com/supper-club/harbor-fish-market-grille/,https://harborfishmarket-grille.com,8080 Highway 57,"Baileys Harbor,",WI,54202,920-839-9999,45.0634003,-87.12348539999999,success,137
northeast,Harborside,https://wisconsinsupperclubs.com/supper-club/harborside/,https://harborsiderestaurantwi.com,701 York Street,"Manitowoc,",WI,54220,920-684-5711,44.0935395,-87.6566861,success,138
northeast,Hillcrest Lodge Supper Club,https://wisconsinsupperclubs.com/supper-club/hillcrest-lodge-supper-club/,https://www.facebook.com/HillcrestLodgeWI/,16704 Nicolet Road,"Townsend,",WI,54175,715-276-1500,45.3274324,-88.5964261,success,139
northeast,Hotel Seymour Supper Club,https://wisconsinsupperclubs.com/supper-club/hotel-seymour-supper-club/,https://hotelseymour.com,210 South Main Street,"Seymour,",WI,54165,920-833-6441,44.5114226,-88.3299662,success,140
northeast,Jim and Linda’s Lakeview,https://wisconsinsupperclubs.com/supper-club/jim-and-lindas-lakeview/,http://www.jimandlindas.net,W3496 County Road W,"Malone,",WI,53049,920-795-4116,43.9142926,-88.3327341,success,141
northeast,Jimmies White House Inn,https://wisconsinsupperclubs.com/supper-club/jimmies-white-house-inn/,https://www.jimmieswhitehouseinn.com,5776 Main Street,"Butte Des Morts,",WI,54927,920-582-7211,44.1003098,-88.6535112,success,142
northeast,Koehring’s Grand Central House,https://wisconsinsupperclubs.com/supper-club/koehrings-grand-central-house/,https://www.facebook.com/people/Koehrings-Grand-Central-House/100063481454466/,602 Fremont Street,"Keil,",WI,53042,920-894-7630,43.9126726,-88.03787969999999,success,143
northeast,Krabbe’s Supper Club,https://wisconsinsupperclubs.com/supper-club/krabbes-supper-club/,http://www.krabbeskountryklub.com,W2890 County Road EE,"Seymour,",WI,54165,920-833-2600,44.444072,-88.33086899999999,success,144
northeast,Kropp’s Supper Club *†,https://wisconsinsupperclubs.com/supper-club/kropps-supper-club-%e2%80%a0/,https://kroppssupperclub.com,4570 Shawano Avenue,"Green Bay,",WI,54313,920-865-7331,44.5880134,-88.1591625,success,145
northeast,Long Drive Supper Club,https://wisconsinsupperclubs.com/supper-club/long-drive-supper-club/,https://longdrivesc.com,897 Riverdale Drive,"Hobart,",WI,54155,920-492-4976,44.5262198,-88.14952620000001,success,146
northeast,Lox Club *†,https://wisconsinsupperclubs.com/supper-club/lox-club-%e2%80%a0/,http://www.theloxclub.com/,591 State Street,"Combined Locks,",WI,54113,920-788-4401,44.2692219,-88.2974266,success,147
northeast,Maiden Lake Supper Club *†,https://wisconsinsupperclubs.com/supper-club/maiden-lake-supper-club-%e2%80%a0/,https://maidenlakesupperclub.com,15649 Maiden Lake Road,"Mountain,",WI,54149,920-276-6479,45.27555539999999,-88.521261,success,148
northeast,Majerle’s Black River Grill †,https://wisconsinsupperclubs.com/supper-club/majerles-black-river-grill-%e2%80%a0/,https://blackrivergrill.com,5033 Evergreen Drive,"Sheboygan,",WI,53081,920-803-5115,43.6965781,-87.7064632,success,149
northeast,Mark’s East Side,https://wisconsinsupperclubs.com/supper-club/marks-east-side/,http://markseastside.com,1405 East Wisconsin Avenue,"Appleton,",WI,54911,920-733-3600,44.2727294,-88.38276570000001,success,150
northeast,"Marq Supper Club, The",https://wisconsinsupperclubs.com/supper-club/the-marq-supper-club/,https://www.themarqwi.com,3177 French Road,"De Pere,",WI,54115,920-785-8090,44.3798334,-88.1647048,success,151
northeast,Marty’s Place Supper Club,https://wisconsinsupperclubs.com/supper-club/martys-place-supper-club/,https://www.martysplacewi.com/,210 North Main Street,"Kimberly,",WI,54136,920-788-1817,44.2742292,-88.334688,success,152
northeast,Michiels of Menasha,https://wisconsinsupperclubs.com/supper-club/michiels-of-menasha/,http://michielsbarandgrill.com,1100 Appleton Road,"Menasha,",WI,54952,920-722-7885,44.2199617,-88.42995619999999,success,153
northeast,"Mill Supper Club, The *†",https://wisconsinsupperclubs.com/supper-club/the-mill-supper-club-%e2%80%a0/,http://www.themillsupperclub.com,4128 Hwy 42,"Sturgeon Bay,",WI,54235,920-743-5044,44.8702317,-87.3358889,success,154
northeast,Millhome Supper Club,https://wisconsinsupperclubs.com/supper-club/millhome-supper-club/,https://www.millhomesupperclub.com,16524 Lax Chapel Road,"Kiel,",WI,53042,920-894-7414,43.8979655,-87.97560370000001,success,155
northeast,Moxie’s Supper Club,https://wisconsinsupperclubs.com/supper-club/moxies-supper-club/,https://www.facebook.com/Moxies607/,607 Church Avenue,"Casco,",WI,54205,920-837-7552,44.55189230000001,-87.6182204,success,156
northeast,Nightingale Supper Club **,https://wisconsinsupperclubs.com/supper-club/nightingale-supper-club/,http://nightingalesupperclub.com/,1541 Egg Harbor Road,"Sturgeon Bay,",WI,54235,920-743-5593,44.8499892,-87.35744129999999,success,157
northeast,Nimrod Inn Supper Club,https://wisconsinsupperclubs.com/supper-club/nimrod-inn-supper-club/,https://www.facebook.com/p/Nimrod-Inn-Bar-Supper-club-100063586089506/,N12808 Northway Drive,"Athelstane,",WI,54104,715-856-5168,45.4240722,-88.0996274,success,158
northeast,Off the Wolf Supper Club,https://wisconsinsupperclubs.com/supper-club/off-the-wolf-supper-club/,https://offthewolfsupperclub.com,204 West Main Street,"Winneconne,",WI,54986,920-582-4422,44.1111495,-88.7139246,success,159
northeast,Out-O-Town Supper Club,https://wisconsinsupperclubs.com/supper-club/out-o-town-supper-club/,https://outotownclub.com,N2161 Town Club Road,"Kaukauna,",WI,54130,920-766-0414,44.3167398,-88.2231815,success,160
northeast,PJ Campbell’s at the Depot,https://wisconsinsupperclubs.com/supper-club/pj-campbells-at-the-depot/,http://www.pjcampbellsatthedepot.com,114 Depot Road,"Plymouth,",WI,53703,920-893-8600,43.745603,-87.978736,success,161
northeast,Prime Steer Supper Club,https://wisconsinsupperclubs.com/supper-club/prime-steer-supper-club/,https://www.eaglewaters.com/restaurant/,704 Hyland Avenue,Kaukauna,WI,54130,920-766-9888,44.2899002,-88.2696102,success,162
northeast,Red Cabin at Green Acres,https://wisconsinsupperclubs.com/supper-club/red-cabin-at-green-acres/,https://www.redcabingreenacres.com,W2701 4th Street,"Fond du Lac,",WI,54937,920-906-9110,43.7551141,-88.2913844,success,163
northeast,Red Ox Seafood & Steak,https://wisconsinsupperclubs.com/supper-club/red-ox-seafood-steak/,https://redoxseafoodandsteakhouse.com,2318 South Oneida Street,"Appleton,",WI,54915,920-830-4121,44.2409685,-88.40367409999999,success,164
northeast,Redwood Inn,https://wisconsinsupperclubs.com/supper-club/redwood-inn/,https://www.facebook.com/Redwood-Inn-113727361989422/,3230 Main Street,"Green Bay,",WI,54311,920-863-6315,44.442293,-87.9229106,success,165
northeast,Rene’s Dining Room,https://wisconsinsupperclubs.com/supper-club/renes-dining-room/,https://www.poppsresort.com/dining-bar/,W11581 County Road X,"Crivitz,",WI,54114,715-757-3411,45.3067527,-88.1794951,success,166
northeast,Richards of Dunbar Supper Club,https://wisconsinsupperclubs.com/supper-club/richards-of-dunbar-supper-club/,https://www.facebook.com/richardsofdunbar/,W11466 US-8,Dunbar,WI,54119,715-324-5444,45.6500563,-88.1684463,success,167
northeast,River’s Bend,https://wisconsinsupperclubs.com/supper-club/rivers-bend/,http://riversbendgb.com,792 Riverview Drive,"Green Bay,",WI,54303,920-544-9860,44.5619801,-88.0625132,success,168
northeast,"River’s Edge, The **",https://wisconsinsupperclubs.com/supper-club/the-rivers-edge/,http://riversedge.biz/,N4178 State Hwy 180,"Marinette,",WI,54143,715-735-7344,45.1110664,-87.667932,success,169
northeast,Rock Falls Supper Club,https://wisconsinsupperclubs.com/supper-club/rock-falls-supper-club/,https://www.facebook.com/RockFallsDyckesville/,6053 Rock Falls Road,"Luxemburg,",WI,54217,920-866-2638,44.6348287,-87.7816814,success,170
northeast,Roepke’s Supper Club *†,https://wisconsinsupperclubs.com/supper-club/roepkes-supper-club-%e2%80%a0/,http://www.roepkesvillageinn.com/,W2686 Saint Charles Road,"Chilton,",WI,53014,920-849-4000,43.970034,-88.1713243,success,171
northeast,Romy’s Nitingale,https://wisconsinsupperclubs.com/supper-club/romys-nitingale/,http://romysbanquethall.com,W5670 County Road A,"Black Creek,",WI,54106,920-984-3631,44.4273876,-88.47246969999999,success,172
northeast,"Roxy Supper Club, The",https://wisconsinsupperclubs.com/supper-club/the-roxy-supper-club/,http://roxysupperclub.com,571 North Main Street,"Oshkosh,",WI,54901,920-231-1980,44.0218829,-88.53786579999999,success,173
northeast,Rupp’s Downtown,https://wisconsinsupperclubs.com/supper-club/rupps-downtown/,https://www.facebook.com/ruppsdowntown/,925 North 8th Street,"Sheboygan,",WI,53081,920-459-8155,43.7544551,-87.7127636,success,174
northeast,Rupp’s Supper Club,https://wisconsinsupperclubs.com/supper-club/rupps-on-washington/,https://www.facebook.com/RuppsOnWashington/,1102 West Washington Avenue,"Cleveland,",WI,53015,920-693-2017,43.9142809,-87.74925859999999,success,175
northeast,Schmitz Brothers 2 Supper Club,https://wisconsinsupperclubs.com/supper-club/schmitz-brothers-2-supper-club/,https://www.facebook.com/people/Schmitz-Brothers-2-Supper-Club/100057597723304/,58 South 8th Street,"Hilbert,",WI,54129,920-853-3015,44.1387852,-88.16375479999999,success,176
northeast,Schwarz’s Supper Club *†,https://wisconsinsupperclubs.com/supper-club/schwarzs-supper-club-%e2%80%a0/,http://www.schwarzsupperclub.com/,W1688 Sheboygan Road,"New Holstein,",WI,53061,920-894-3598,43.8918839,-88.12177899999999,success,177
northeast,Sebastian’s Steak House,https://wisconsinsupperclubs.com/supper-club/sebastians-steak-house/,https://www.sebastianssteakhouse.net,770 South Main Street,"Fond du Lac,",WI,54935,920-922-3333,43.75778,-88.44932829999999,success,178
northeast,Sister Bay Bowl,https://wisconsinsupperclubs.com/supper-club/sister-bay-bowl/,https://www.sisterbaybowl.com,10640 North Bay Shore Drive,"Sister Bay,",WI,54234,920-854-2841,45.1874684,-87.1223691,success,179
northeast,T&T Steakhouse,https://wisconsinsupperclubs.com/supper-club/tt-steakhouse/,https://www.facebook.com/TNTSTEAK/,W598 County Road N,"Niagra,",WI,54151,715-589-4111,45.7841118,-88.08343409999999,success,180
northeast,Theo’s 24,https://wisconsinsupperclubs.com/supper-club/theos-24/,https://www.theos24.com,24 North Main Street,"Fond du Lac,",WI,54935,920-907-9192,43.7796053,-88.4472969,success,181
northeast,Twin Bridge Supper Club,https://wisconsinsupperclubs.com/supper-club/twin-bridge-supper-club/,https://twinbridgeresort.com,N9661 Parkway Road,"Crivitz,",WI,54114,715-757-3651,45.3136375,-88.2001921,success,182
northeast,Union Hotel,https://wisconsinsupperclubs.com/supper-club/union-hotel/,https://www.facebook.com/UnionHotelDePere/,200 North Broadway,"De Pere,",WI,54115,920-336-6131,44.4502393,-88.0601599,success,183
northeast,Van Abel’s of Hollandtown,https://wisconsinsupperclubs.com/supper-club/van-abels-of-hollandtown/,https://vanabels.com,8108 County Trunk Hwy D,"Kaukauna,",WI,54130,920-766-2291,44.2513787,-88.17260110000001,success,184
northeast,Weatherwood Supper Club,https://wisconsinsupperclubs.com/supper-club/weatherwood-supper-club/,https://www.facebook.com/Weatherwood/,12898 Hwy 32,"Moutain,",WI,54149,715-276-6329,45.1576915,-88.4507038,success,185
northeast,Wendt’s on the Lake,https://wisconsinsupperclubs.com/supper-club/wendts-on-the-lake/,http://www.wendtsonthelake.com,N9699 Lake Shore Drive,"Van Dyne,",WI,54979,920-688-5231,43.89325760000001,-88.4686401,success,186
northeast,Whitetail Inn,https://wisconsinsupperclubs.com/supper-club/whitetail-inn-2/,https://www.facebook.com/people/Whitetail-Inn/100057648781571/,9038 Hwy 70 West,"St. Germain,",WI,54558,715-542-2541,45.9212952,-89.5523071,success,187
northeast,Wildflower Supper Club,https://wisconsinsupperclubs.com/supper-club/wildflower-supper-club/,https://www.facebook.com/wildflowersupperclub306/,306 Ellis Street,"Kewaunee,",WI,54126,920-388-6076,44.4580879,-87.5035032,success,188
north-central,Aberdeen Restaurant & Bar,https://wisconsinsupperclubs.com/supper-club/aberdeen-restaurant-bar/,https://aberdeendining.com/,5325 Aberdeen Lodge Circle,"Manitowish Waters,",WI,54545,715-543-8700,46.1013035,-89.82068559999999,success,189
north-central,Amy’s Roadhouse,https://wisconsinsupperclubs.com/supper-club/amys-roadhouse/,https://www.facebook.com/people/Amys-Roadhouse/100064637962329/,W8916 Oak Avenue,"Shawano,",WI,54166,715-524-4901,44.7970981,-88.6920461,success,190
north-central,Antlers Supper Club *†,https://wisconsinsupperclubs.com/supper-club/antlers-supper-club-%e2%80%a0/,https://antlerssupperclub.com,120 East Green Bay Street,"Bonduel,",WI,54107,715-758-2190,44.739365,-88.4454574,success,191
north-central,Asana Suka,https://wisconsinsupperclubs.com/supper-club/asana-suka/,https://asanasuka.com,6366 Hwy 45 North,"Land O’ Lakes,",WI,54540,715-547-3344,46.1540559,-89.2050411,success,192
north-central,Ash’s,https://wisconsinsupperclubs.com/supper-club/ashs/,https://ashs-restaurant.com,1853 Old Hwy 69,"Florence,",WI,54121,715-696-8062,45.8811127,-88.152339,success,193
north-central,"Bear Trap Inn, The †",https://wisconsinsupperclubs.com/supper-club/the-bear-trap-inn-%e2%80%a0/,https://www.beartrapinn.net,4703 County Hwy B,"Land O’ Lakes,",WI,54540,715-547-3422,46.1561938,-89.2494482,success,194
north-central,Belvedere Supper Club,https://wisconsinsupperclubs.com/supper-club/belvedere-supper-club/,http://belvederesupperclub.net,203630 State Hwy 97,"Marshfield,",WI,54449,715-387-4161,44.718568,-90.10809,success,195
north-central,Besse’s on Clear Lake,https://wisconsinsupperclubs.com/supper-club/besses-on-clear-lake/,https://www.facebook.com/Besses-on-Clear-Lake-138714976191217,W6060 Northern Lights Cir,"Tomahawk,",WI,54487,715-453-2339,45.538261,-89.7329657,success,196
north-central,Bootleggers Lodge,https://wisconsinsupperclubs.com/supper-club/bootleggers-lodge/,https://www.bootleggers-lodge.com,2001 Indian Pine Point Road,"Tomahawk,",WI,54487,715-453-7971,45.5606278,-89.7102884,success,197
north-central,Branding Iron Supper Club **,https://wisconsinsupperclubs.com/supper-club/branding-iron-supper-club/,http://brandingironsupperclub.com/,9721 State Highway 13 South,"Wisconsin Rapids,",WI,54494,715-325-8102,44.3054274,-89.8096576,success,198
north-central,Buck-A-Neer Supper Club *†,https://wisconsinsupperclubs.com/supper-club/buck-a-neer-supper-club-%e2%80%a0/,http://www.thebuckaneer.com,122923 County Road C,"Stratford,",WI,54484,715-384-2629,44.7427077,-90.02593999999999,success,199
north-central,Chanticleer Inn,https://wisconsinsupperclubs.com/supper-club/chanticleer-inn/,https://www.chanticleerinn.com/en/menu,1458 East Dollar Lake Road,Eagle River,WI,54521,715-479-4486,45.9218313,-89.1960416,success,200
north-central,Chef Rene’s at Eagle River,https://wisconsinsupperclubs.com/supper-club/chef-renes-at-eagle-river/,https://www.chefreneseagleriver.com,5260 Hwy 70 West,"Eagle River,",WI,54521,715-479-2000,45.9077834,-89.28943149999999,success,201
north-central,Classic’s Restaurant & Lounge,https://wisconsinsupperclubs.com/supper-club/classics-restaurant-lounge/,http://www.classicsshawano.com,W6026 Lake Drive,"Shawano,",WI,54166,715-524-8711,44.8290315,-88.5457059,success,202
north-central,Clearview Supper Club,https://wisconsinsupperclubs.com/supper-club/clearview-supper-club/,http://www.clearviewsupperclub.com,8599 Big St. Germain Drive,"St. Germain,",WI,54588,715-542-2474,45.9125359,-89.4645201,success,203
north-central,Club 22,https://wisconsinsupperclubs.com/supper-club/club-22/,https://www.restaurantji.com/wi/shawano/club-22-/,N3925 Friendship Circle,"Shawano,",WI,54166,715-526-3800,44.7315637,-88.67823,success,204
north-central,Club 23,https://wisconsinsupperclubs.com/supper-club/club-23/,https://club-23.com,465 State Road 23,"Wisconsin Dells,",WI,53965,608-254-8060,43.65016079999999,-89.6715739,success,205
north-central,"Cove Supper Club, The",https://wisconsinsupperclubs.com/supper-club/the-cove-supper-club/,https://www.facebook.com/thecoveonlakemason/,156 State Road 23,"Briggsville,",WI,53920,608-981-2601,43.6510063,-89.6115811,success,206
north-central,Crystal’s Wood Lake Supper Club,https://wisconsinsupperclubs.com/supper-club/crystals-wood-lake-supper-club/,https://www.restaurantji.com/wi/westfield/crystal-s-wood-lake-supper-club-/,W7115 Dakota Avenue,"Westfield,",WI,53964,608-296-4129,43.98184879999999,-89.51304069999999,success,207
north-central,Dixon’s Torchlite,https://wisconsinsupperclubs.com/supper-club/dixons-torchlite/,https://torchliteshawano.com,1276 East Green Bay Street,"Shawano,",WI,54166,715-526-5680,44.7811598,-88.5773524,success,208
north-central,Dockers on the Corner,https://wisconsinsupperclubs.com/supper-club/dockers-on-the-corner/,https://www.facebook.com/Dockersonthecorner/,N5846 East Lake Drive,"Shawano,",WI,54166,715-526-3931,44.8453139,-88.5012304,success,209
north-central,Eagle Waters Resort,https://wisconsinsupperclubs.com/supper-club/eagle-waters-resort/,https://www.eaglewaters.com/restaurant/,3958 Eagle Waters Road,Eagle River,WI,54521,715-479-4411,45.9363046,-89.19813339999999,success,210
north-central,Eddie B’s White Spruce,https://wisconsinsupperclubs.com/supper-club/eddie-bs-white-spruce/,https://www.eddiebwhitespruce.com,419 North Railroad Street,"Eagle River,",WI,54521,715-480-4000,45.9200408,-89.25387959999999,success,211
north-central,El Capitan Supper Club,https://wisconsinsupperclubs.com/supper-club/el-capitan-supper-club/,https://elcapitansupperclub.com/,695 Hwy 2,"Florence,",WI,54121,715-696-3493,45.87583069999999,-88.0894867,success,212
north-central,Fireside Supper Club,https://wisconsinsupperclubs.com/supper-club/fireside-supper-club/,https://www.facebook.com/pages/category/American-Restaurant/Fireside-Supper-Club-121715451172468/,6012 County K,"Rhinelander,",WI,54501,715-369-4717,45.6224479,-89.4674453,success,213
north-central,Four Seasons Supper Club **,https://wisconsinsupperclubs.com/supper-club/four-seasons-supper-club/,http://fourseasonssupperclub.com/,10338 Big Arbor Vitae Drive,"Arbor Vitae,",WI,54568,715-356-5095,45.92053809999999,-89.64717259999999,success,214
north-central,"Guide’s Inn, The",https://wisconsinsupperclubs.com/supper-club/the-guides-inn/,http://fourseasonssupperclub.com/,5427 Park Street,"Boulder Junction,",WI,54512,715-385-2233,46.10871359999999,-89.64264159999999,success,215
north-central,Hidden Valley Supper Club,https://wisconsinsupperclubs.com/supper-club/hidden-valley-supper-club/,https://www.facebook.com/Hidden-Valley-Supper-Club-180684555317386/,12704 County Road M,"Caroline,",WI,54928,715-754-5995,44.71998259999999,-88.8895254,success,216
north-central,JJ’s on Main,https://wisconsinsupperclubs.com/supper-club/jjs-on-main/,https://www.facebook.com/jjsonmainllc/,207 West Main Street,"Bowler,",WI,54416,715-793-4457,44.8631939,-88.985321,success,217
north-central,Jung’s Nutshell Supper Club,https://wisconsinsupperclubs.com/supper-club/jungs-nutshell-supper-club/,https://www.facebook.com/JungsNutshell23/?_rdr,N696 County Hwy S,"Antigo,",WI,54409,715-489-3306,45.0513547,-89.0216784,success,218
north-central,Kassidy’s Studio Lounge,https://wisconsinsupperclubs.com/supper-club/kassidys-studio-lounge/,https://www.facebook.com/kass.mikeandrus/,7703 Hwy MMM,"Shawano,",WI,54166,715-524-5883,44.7822064,-88.60899169999999,success,219
north-central,Kathy & Cal’s Club 64,https://wisconsinsupperclubs.com/supper-club/kathy-cals-club-64/,https://www.restaurantji.com/wi/merrill/club-64-aka-kathy-and-cals-club-64-/,2405 West Main Street,"Merrill,",WI,54452,715-536-3847,45.1769208,-89.7325893,success,220
north-central,Lake Aire Supper Club,https://wisconsinsupperclubs.com/supper-club/lake-aire-supper-club/,http://www.lakeairesupperclub.com,6510 State Hwy 13,"Wisconsin Rapids,",WI,54494,715-235-5147,44.335482,-89.8155159,success,221
north-central,Lanny’s Fireside Supper Club,https://wisconsinsupperclubs.com/supper-club/lannys-fireside-supper-club/,https://www.facebook.com/pages/category/American-Restaurant/Lannys-Fireside-104936866215731/,5315 Hwy 45,"Conover,",WI,54519,715-547-8120,46.102731,-89.22791000000001,success,222
north-central,Lawson’s Triple O Supper Club,https://wisconsinsupperclubs.com/supper-club/lawsons-triple-o-supper-club/,https://www.facebook.com/p/Lawsons-Triple-O-Supper-Club-100083221237398/,N8818 County Road O,"Clintonville,",WI,54929,715-752-3357,44.5577583,-88.87970729999999,success,223
north-central,Marty’s Place North,https://wisconsinsupperclubs.com/supper-club/martys-place-north/,https://martysplacenorth.com/,2721 US 51,"Woodruff,",WI,54568,715-358-0270,45.97812450000001,-89.6999828,success,224
north-central,Mathew’s Supper Club,https://wisconsinsupperclubs.com/supper-club/mathews-supper-club/,https://www.facebook.com/Mathews-Supper-Club-622389107836804/,155 8th Street,"Clintonville,",WI,54929,715-823-3463,44.6210664,-88.7722313,success,225
north-central,McGregor’s Blink Bonnie,https://wisconsinsupperclubs.com/supper-club/mcgregors-blink-bonnie/,https://www.facebook.com/pages/McGregors-Blink-Bonnie-Supper-Club/111602718880165,8997 Hwy 70,"St. Germain,",WI,54558,715-542-3678,45.920225,-89.54941339999999,success,226
north-central,Mecan River Lodge,https://wisconsinsupperclubs.com/supper-club/mecan-river-lodge/,http://mecanriveroutfitters.com/dining.html,W720 Hwy 23,"Princeton,",WI,54986,920-295-3439,43.83197149999999,-89.19892999999999,success,227
north-central,Meyer’s Clint Mar Supper Club,https://wisconsinsupperclubs.com/supper-club/meyers-clint-mar-supper-club/,https://www.facebook.com/pages/category/Local-Business/Meyers-Clint-Mar-145698752107200/,N11720 Hwy 45,"Clintonville,",WI,54929,715-754-5500,44.6663922,-88.85275879999999,success,228
north-central,Michele’s Supper Club,https://wisconsinsupperclubs.com/supper-club/micheles-supper-club/,https://michelessupperclub.com,513 Division Street,"Stevens Point,",WI,54481,715-341-3363,44.5304637,-89.5743715,success,229
north-central,MJ’s Supper Club,https://wisconsinsupperclubs.com/supper-club/mjs-supper-club/,https://www.restaurantji.com/wi/hortonville/mjs-supper-club-/,W8326 County Road MM,"Hortonville,",WI,54944,920-779-9701,44.3530712,-88.6089782,success,230
north-central,"Moose Inn, The",https://wisconsinsupperclubs.com/supper-club/the-moose-inn/,https://themooseinn.com,W6846 State Road 21,"Wautoma,",WI,54982,920-787-2241,44.0554176,-89.2260793,success,231
north-central,Northfork Fin & Filet,https://wisconsinsupperclubs.com/supper-club/northfork-fin-filet/,https://www.northforkff.com,11084 Hwy 70,"Woodruff,",WI,54586,715-439-4093,45.92131759999999,-89.6949463,success,232
north-central,Norton’s of Green Lake,https://wisconsinsupperclubs.com/supper-club/nortons-of-green-lake/,http://nortonsgreenlake.com,380 South Larson Drive,"Green Lake,",WI,54941,920-294-6577,43.84429129999999,-88.96419069999999,success,233
north-central,Norwood Pines Supper Club *†,https://wisconsinsupperclubs.com/supper-club/norwood-pines-supper-club-%e2%80%a0/,http://www.norwoodpines.com/,10171 Hwy 70,"Minocqua,",WI,54548,715-356-3666,45.8800955,-89.74711719999999,success,234
north-central,Palms Supper Club,https://wisconsinsupperclubs.com/supper-club/palms-supper-club/,http://thepalmswausau.com,5912 Hwy 51 BUS,"Weston,",WI,54476,715-359-2200,44.8870325,-89.6403027,success,235
north-central,Pine Tree Supper Club,https://wisconsinsupperclubs.com/supper-club/pine-tree-supper-club-2/,https://www.facebook.com/pinetreetomahawk/,115 West Wisconsin Avenue,"Tomahawk,",WI,54487,715-453-4235,45.4707604,-89.7312572,success,236
north-central,Pine Tree Supper Club **,https://wisconsinsupperclubs.com/supper-club/pine-tree-supper-club/,https://www.pinetreesupperclub.com/,E8095 Hwy 54,"New London,",WI,54961,920-952-5738,44.4095875,-88.8186721,success,237
north-central,Pinewood Supper Club *†,https://wisconsinsupperclubs.com/supper-club/pinewood-supper-club-%e2%80%a0/,http://www.thepinewood.com/,1208 Half Moon Lake Drive,"Mosinee,",WI,54455,715-693-3180,44.8134402,-89.70981049999999,success,238
north-central,Pub ‘N’ Prime,https://wisconsinsupperclubs.com/supper-club/pub-n-prime/,https://www.facebook.com/pubnprimetikibar/,8085 Hwy 70 E,"St. Germain,",WI,54558,715-479-7331,45.9127594,-89.4884975,success,239
north-central,Richard’s Restaurant & Bar,https://wisconsinsupperclubs.com/supper-club/richards-restaurant-bar/,http://www.richards-restaurant.com,5305 North 32nd Avenue,"Wausau,",WI,54401,715-675-7070,45.0204888,-89.67684369999999,success,240
north-central,Savory Steakhouse,https://wisconsinsupperclubs.com/supper-club/savory-steakhouse/,https://savorysteakhouse.com,4320 80th Street S,"Wisconsin Rapids,",WI,54494,715-712-1330,44.3563014,-89.7250543,success,241
north-central,Silver Birch Supper Club **,https://wisconsinsupperclubs.com/supper-club/silver-birch-supper-club/,https://silverbirchsupperclub.com,W6009 Taylor Lane,"Tomahawk,",WI,54487,715-453-2025,45.52185739999999,-89.72971290000001,success,242
north-central,Silvercryst Supper Club *†,https://wisconsinsupperclubs.com/supper-club/silvercryst-supper-club-%e2%80%a0/,http://www.silvercryst.com/,W7015 Hwy 21 East,"Wautoma,",WI,54982,715-787-3367,44.058662,-89.2339063,success,243
north-central,Simpson’s in Waupaca,https://wisconsinsupperclubs.com/supper-club/simpsons-in-waupaca/,http://simpsonswaupaca.com,222 South Main Street,"Waupaca,",WI,54981,715-258-2330,44.3562804,-89.08526830000001,success,244
north-central,Sky Club *†,https://wisconsinsupperclubs.com/supper-club/sky-club-%e2%80%a0/,http://www.skyclubdining.com/,2202 Post Road,"Plover,",WI,54467,715-341-4000,44.4648517,-89.5444122,success,245
north-central,Smokey’s,https://wisconsinsupperclubs.com/supper-club/smokeys/,http://smokeysdining.com/,6410 County Hwy W,"Manitowish Waters,",WI,54545,715-543-2220,46.1563102,-89.8759706,success,246
north-central,Swartzendruber’s Supper Club,https://wisconsinsupperclubs.com/supper-club/swartzendrubers-supper-club/,https://swartzendrubers.com,1315 Forrest Avenue,"Antigo,",WI,54409,715-627-7027,45.1247209,-89.1657465,success,247
north-central,Three Coins at Holiday Acres,https://wisconsinsupperclubs.com/supper-club/three-coins-at-holiday-acres/,https://www.holidayacres.com/three-coins-restaurant,4060 Shore Drive,"Rhinelander,",WI,54501,715-369-1501,45.6310961,-89.3239957,success,248
north-central,Twilight Supper Club,https://wisconsinsupperclubs.com/supper-club/twilight-supper-club/,https://twilightsupperclub.com,5810 Hwy 45,"Land O’ Lakes,",WI,54540,715-547-8500,46.1274056,-89.2056076,success,249
north-central,Two Lakes **,https://wisconsinsupperclubs.com/supper-club/two-lakes/,http://hellotwolakes.com/,9915 Two Lakes Road,"Almond,",WI,54909,715-366-2479,44.2541286,-89.4474698,success,250
north-central,Wally’s South 17 Supper Club,https://wisconsinsupperclubs.com/supper-club/wallys-south-17-supper-club/,https://www.facebook.com/people/Wallys-South-17-Supper-Club/61556774902236/,3220 Boyce Road,"Rhinelander,",WI,54501,715-420-0939,45.6206705,-89.4377349,success,251
north-central,Washington Inn Supper Club *†,https://wisconsinsupperclubs.com/supper-club/washington-inn-supper-club-%e2%80%a0/,https://www.restaurantji.com/wi/cecil/washington-inn-supper-club-/,101 South Warrington Avenue,"Cecil,",WI,54111,715-745-2900,44.809889,-88.4515172,success,252
north-central,"Waters Supper Club, The",https://wisconsinsupperclubs.com/supper-club/the-waters-supper-club/,http://www.atthewaters.com,815 West Wolf River Avenue,"New London,",WI,54961,920-982-7960,44.3912956,-88.748847,success,253
north-central,White Stag Inn *†,https://wisconsinsupperclubs.com/supper-club/white-stag-inn-%e2%80%a0/,https://www.restaurantji.com/wi/rhinelander/white-stag-inn-/,7141 State Hwy 17 North,"Rhinelander,",WI,54501,715-272-1057,45.8115239,-89.32039119999999,success,254
north-central,Whitetail Inn,https://wisconsinsupperclubs.com/supper-club/whitetail-inn/,http://www.whitetailinnwi.com,9038 Hwy 70,"St. Germain,",WI,54558,715-542-2541,45.9212952,-89.5523071,success,255
north-central,William’s Pine Gables,https://wisconsinsupperclubs.com/supper-club/williams-pine-gables/,https://pinegablessupperclub.com,1002 West Pine Street,"Eagle River,",WI,54521,715-479-4225,45.91376700000001,-89.27071099999999,success,256
north-central,Willow Haven Bar & Grill,https://wisconsinsupperclubs.com/supper-club/willow-haven-bar-grill/,https://www.facebook.com/p/Willow-Haven-Bar-And-Grill-Inc-100063848071200/,4877 Haven Drive,"Hazelhurst,",WI,54531,715-453-3678,45.702486,-89.84900640000001,success,257
north-central,Wolff’s River Inn †,https://wisconsinsupperclubs.com/supper-club/wolffs-river-inn-%e2%80%a0/,https://www.facebook.com/Wolffs-River-Inn-130780230273136/,W8700 County Road K,"Elcho,",WI,54428,715-275-3902,45.4410214,-89.0809128,success,258
northwest,5 O’Clock Club,https://wisconsinsupperclubs.com/supper-club/5-oclock-club/,https://www.facebook.com/thefiveoclock/,2639 7th Street,"Cumberland,",WI,54829,715-822-2924,45.58714,-92.0119538,success,259
northwest,Beedles Bar & Restaurant,https://wisconsinsupperclubs.com/supper-club/beedles-bar-restaurant/,https://www.beedlesbar.com/,W24966 Hwy 54,"Galesville,",WI,54630,608-539-2251,44.07036189999999,-91.45044539999999,success,260
northwest,"Buckhorn Bar, The",https://wisconsinsupperclubs.com/supper-club/the-buckhorn-bar/,https://www.facebook.com/buckhornexeland,11010 Hwy 48,"Exeland,",WI,54835,715-943-2781,45.66840089999999,-91.2383443,success,261
northwest,Buskey Bay Resort,https://wisconsinsupperclubs.com/supper-club/buskey-bay-resort/,https://buskeybayresort.com/dining/,65445 County Hwy H,"Iron River,",WI,54847,715-372-4580,46.5235982,-91.38409730000001,success,262
northwest,Castle Hill Supper Club,https://wisconsinsupperclubs.com/supper-club/castle-hill-supper-club/,http://www.castlehillsupperclub.com/,N9581 Hwy 12,"Merrillan,",WI,54754,715-333-5901,44.41672190000001,-90.83343119999999,success,263
northwest,Cousin’s Hide-A-Way,https://wisconsinsupperclubs.com/supper-club/cousins-hide-a-way/,https://www.facebook.com/people/Cousins-Hide-A-Way/100063561400859/,209 County Road SS,"Haugen,",WI,54841,715-234-6555,45.6088426,-91.77489299999999,success,264
northwest,"Dalles House, The",https://wisconsinsupperclubs.com/supper-club/the-dalles-house/,http://www.dalleshouse.com,720 South Vincent Street,"St. Croix Falls,",WI,54024,715-483-3246,45.400462,-92.6362456,success,265
northwest,Ding-A-Ling Supper Club,https://wisconsinsupperclubs.com/supper-club/ding-a-ling-supper-club/,https://www.facebook.com/people/Dingaling-Supper-Club/100063499515779/,1711 Hwy 51,"Mercer,",WI,54547,715-476-2270,46.131804,-90.0130127,success,266
northwest,Dreamland Supper Club,https://wisconsinsupperclubs.com/supper-club/dreamland-supper-club/,http://www.dreamlandsupperclub.com/,4368 South County Road East,"South Range,",WI,54874,715-398-3706,46.6054667,-91.9468028,success,267
northwest,Eddie’s,https://wisconsinsupperclubs.com/supper-club/eddies/,http://eddiesribs.net/,5221 East 4th Street,"Superior,",WI,54880,715-398-0191,46.6739608,-92.0090292,success,268
northwest,Evergreens Supper Club,https://wisconsinsupperclubs.com/supper-club/evergreens-supper-club/,https://www.facebook.com/EvergreensSupperClubLLC/,1095 Apollo Road,"Black River Falls,",WI,54615,608-272-3202,44.1577969,-90.71350509999999,success,269
northwest,Fannie’s Supper Club & Motel,https://wisconsinsupperclubs.com/supper-club/fannies-supper-club-motel/,https://www.fanniessupperclub.com,W3741 Hwy 10,"Neillsville,",WI,54456,715-743-2169,44.5524509,-90.4983829,success,270
northwest,Hammond Steak House,https://wisconsinsupperclubs.com/supper-club/hammond-steak-house/,http://hammondsteakhouse.com,1402 North 5th Street,"Superior,",WI,54880,715-392-3269,46.7323339,-92.098315,success,271
northwest,High View Inn,https://wisconsinsupperclubs.com/supper-club/high-view-inn/,https://www.restaurantji.com/wi/medford/high-view-inn-/,W7766 Perkinstown Avenue,"Medford,",WI,54451,715-785-7847,45.19005850000001,-90.4416806,success,272
northwest,Hillside Fish House,https://wisconsinsupperclubs.com/supper-club/hillside-fish-house/,http://hillsidefishhouse.com/,W126 Hwy 35,"Fountain City,",WI,54629,715-687-6141,44.07121069999999,-91.5572078,success,273
northwest,Hilltop Retreat,https://wisconsinsupperclubs.com/supper-club/hilltop-retreat/,https://hilltopretreat-cumberland.com,2896 1 1/2 Street,Cumberland,WI,54829,715-822-3230,45.624365,-92.126978,success,274
northwest,Houligans Steak & Seafood Pub,https://wisconsinsupperclubs.com/supper-club/houligans-steak-seafood-pub/,https://houligans.net,415 South Barstow Street,"Eau Claire,",WI,54701,715-835-6621,44.8097184,-91.4980611,success,275
northwest,Indianhead Supper Club,https://wisconsinsupperclubs.com/supper-club/indianhead-supper-club/,http://www.indianheadsupperclub.com/,107 Indianhead Shores Drive,"Balsam Lake,",WI,54810,715-485-3359,45.4519136,-92.4475537,success,276
northwest,Inwood Supper Club,https://wisconsinsupperclubs.com/supper-club/inwood-supper-club/,https://www.facebook.com/Inwood-Supper-Club-193848163993767/,N9503 County Road K,"Merrillan,",WI,54754,715-333-6653,44.4147018,-90.7311934,success,277
northwest,Jake’s Supper Club,https://wisconsinsupperclubs.com/supper-club/jakes-supper-club/,http://jakessupperclub.com/,E5690 County Road D,"Menomonie,",WI,54751,715-235-2465,44.9688058,-91.8752007,success,278
northwest,John & Heidi’s Happy Daze,https://wisconsinsupperclubs.com/supper-club/john-heidis-happy-daze/,https://www.facebook.com/people/John-and-Heidi-s-Happy-Daze/61551507800668/,W10088 US 8,Kennan,WI,54537,715-474-2409,45.5375771,-90.5761522,success,279
northwest,JS Supper Club,https://wisconsinsupperclubs.com/supper-club/js-supper-club/,https://www.restaurantji.com/wi/ladysmith/js-supper-club-and-catering-/,W9594 Hwy 8,"Ladysmith,",WI,54848,715-532-7897,45.4630231,-91.10403579999999,success,280
northwest,Kimball Inn,https://wisconsinsupperclubs.com/supper-club/kimball-inn/,https://www.facebook.com/KimballInn/,6622 Hwy 2,"Hurley,",WI,54534,715-561-4095,46.491309,-90.2618711,success,281
northwest,Kincaid’s Country Inn,https://wisconsinsupperclubs.com/supper-club/kincaids-country-inn/,https://kincaidscountryinn.com,2499 County Road SS,"Rice Lake,",WI,54868,715-234-4803,45.4299547,-91.50997009999999,success,282
northwest,Kutzee’s Supper Club,https://wisconsinsupperclubs.com/supper-club/kutzees-supper-club/,https://www.facebook.com/Kutzees/,34027 County Hwy X,"Stanley,",WI,54768,715-644-5700,44.9440529,-90.9833065,success,283
northwest,"Laurel Supper Club, The",https://wisconsinsupperclubs.com/supper-club/the-laurel-supper-club/,https://www.restaurantji.com/wi/new-richmond/laurel-supper-club-/,1905 Hwy 64,"New Richmond,",WI,54017,715-246-5121,45.1366801,-92.4254283,success,284
northwest,Lehman’s Supper Club,https://wisconsinsupperclubs.com/supper-club/lehmans-supper-club/,http://lehmanssupperclub.net/,2911 South Main Street,"Rice Lake,",WI,54868,715-234-9911,45.47070129999999,-91.7346963,success,285
northwest,Monkey’s Roost,https://wisconsinsupperclubs.com/supper-club/monkeys-roost/,https://www.restaurantji.com/wi/melrose/monkeys-roost-/,1011 Hwy 71,"Melrose,",WI,54642,608-488-5791,44.09967630000001,-90.9731407,success,286
northwest,Northwoods Supper Club,https://wisconsinsupperclubs.com/supper-club/northwoods-supper-club/,https://www.facebook.com/Northwoods-Supper-Club-113984821956457/,N14066 Flambeau Avenue,"Fifield,",WI,54524,715-762-4447,45.8800407,-90.42056819999999,success,287
northwest,Old Abe’s Supper Club,https://wisconsinsupperclubs.com/supper-club/old-abes-supper-club/,https://facebook.com/OldAbesSupperClub,17256 155th Avenue,"Jim Falls,",WI,54748,715-382-4656,45.0682013,-91.32296699999999,success,288
northwest,P&E Steakhouse,https://wisconsinsupperclubs.com/supper-club/pe-steakhouse/,http://pesteakhouse.com,N2319 State Hwy 13,"Medford,",WI,54451,715-748-2975,45.1167869,-90.33086109999999,success,289
northwest,Pine Ridge,https://wisconsinsupperclubs.com/supper-club/pine-ridge/,http://www.pineridgewi.com/,16618 Sissabagama Road,"Stone Lake,",WI,54876,715-865-2796,45.8035218,-91.5261762,success,290
northwest,"Ranch Supper Club, The *†",https://wisconsinsupperclubs.com/supper-club/the-ranch-supper-club/,https://ranchsupperclub.com,10590 North Ranch Road,"Hayward,",WI,54843,715-634-2090,46.01609,-91.4667022,success,291
northwest,Rolling Oaks Supper Club,https://wisconsinsupperclubs.com/supper-club/rolling-oaks-supper-club/,https://www.rollingoakssupperclub.com,450 West Division Avenue,Barron,WI,54812,715-537-9300,45.4007745,-91.86547809999999,success,292
northwest,Shady Grove,https://wisconsinsupperclubs.com/supper-club/shady-grove/,https://shadygrovewi.com/index.html,N6240 State Road 65,"Ellsworth,",WI,54011,715-273-3787,44.7656956,-92.48670659999999,success,293
northwest,"Steakhouse & Lodge, The",https://wisconsinsupperclubs.com/supper-club/the-steakhouse-lodge/,https://www.steakhouseandlodge.com/restaurant-in-hayward-wi,15860 T Bone Lane,"Hayward,",WI,54843,715-934-4411,46.0023065,-91.4861988,success,294
northwest,Sullivan’s Supper Club,https://wisconsinsupperclubs.com/supper-club/sullivans-supper-club/,https://sullivanssupperclub.com,W25709 Sullivan Road,"Trempealeau,",WI,54661,608-534-7775,44.0115682,-91.46238199999999,success,295
northwest,Sunset Bay Supper Club,https://wisconsinsupperclubs.com/supper-club/sunset-bay-supper-club/,https://www.sunsetbaysupperclub.com,N10575 East Solberg Lake Road,"Phillips,",WI,54555,715-339-3357,45.7573602,-90.3612309,success,296
northwest,Tally Ho Supper Club,https://wisconsinsupperclubs.com/supper-club/tally-ho-supper-club/,http://tallyhosupperclub.com/,10432 Hwy 77,"Hayward,",WI,54843,715-462-3646,46.0130065,-91.4846208,success,297
northwest,Trailways Inn Supper Club,https://wisconsinsupperclubs.com/supper-club/trailways-inn-supper-club/,https://www.facebook.com/people/Trailways-Inn-Restaurant/100063610871472/,16021 West County Road K,"Hayward,",WI,54843,715-634-2328,45.9140835,-91.4968162,success,298
northwest,Turtle Club,https://wisconsinsupperclubs.com/supper-club/turtle-club/,https://www.restaurantji.com/wi/medford/turtle-club-/,W7944 Perkinstown Avenue,"Medford,",WI,54451,715-748-2975,45.1915346,-90.45072789999999,success,299
northwest,Wason’s Supper Club,https://wisconsinsupperclubs.com/supper-club/wasons-supper-club/,http://www.wasons.com,W2182 Hwy 54,"Galesville,",WI,54630,608-582-2763,44.0769114,-91.3566139,success,300
northwest,West Wind Supper Club,https://wisconsinsupperclubs.com/supper-club/west-wind-supper-club/,https://thewestwind.com,709 North Main Street,"River Falls,",WI,54022,715-425-8100,44.868471,-92.6223083,success,301
northwest,Wildcat Supper Club,https://wisconsinsupperclubs.com/supper-club/wildcat-supper-club/,https://www.facebook.com/Wildcatsupperclub/,W8270 County Road B,"Neillsville,",WI,54456,715-743-2762,44.5733283,-90.72932089999999,success,302
northwest,Wissota High Shores Supper Club,https://wisconsinsupperclubs.com/supper-club/wissota-high-shores-supper-club/,https://wissotahighshores.com/,17985 Hwy X,"Chippewa Falls,",WI,54729,715-215-2981,43.9456524,-86.039215,success,303
